ONEWEB-0564             
1 55801U 23029F   25191.69878766  .00000037  00000+0  58296-4 0  9993
2 55801  87.9271 342.5017 0001529 102.8256 257.3048 13.20770586116071
ONEWEB-0638             
1 55802U 23029G   25192.46151372  .00000134  00000+0  32821-3 0  9990
2 55802  87.9047 357.5583 0001815 110.0307 250.1018 13.14503518115342
ONEWEB-0639             
1 55803U 23029H   25192.46287225  .00000069  00000+0  13880-3 0  9999
2 55803  87.9215  12.7166 0003006  89.5551 270.5926 13.19725055114656
ONEWEB-0640             
1 55804U 23029J   25192.47102510  .00000186  00000+0  46711-3 0  9993
2 55804  87.9047 357.5438 0002280 110.4109 249.7266 13.14504553115332
ONEWEB-0641             
1 55805U 23029K   25192.45813930  .00000056  00000+0  10787-3 0  9997
2 55805  87.9215  12.6891 0002068  89.3096 270.8274 13.19725988114666
ONEWEB-0642             
1 55806U 23029L   25192.45340463  .00000079  00000+0  16605-3 0  9994
2 55806  87.9212  12.7274 0002749  83.7586 276.3860 13.19724338114657
ONEWEB-0643             
1 55807U 23029M   25191.52749014  .00000298  00000+0  76977-3 0  9998
2 55807  87.9044 357.7139 0002427  79.9872 280.1531 13.14503204114505
ONEWEB-0644             
1 55808U 23029N   25192.52448095  .00000058  00000+0  11273-3 0  9997
2 55808  87.9221  12.7182 0002374  86.1952 273.9452 13.19725526114666
